CCSDS_OMM_VERS = 2.0
CREATION_DATE  = 
ORIGINATOR     = 

OBJECT_NAME    = COSMOS 1933
OBJECT_ID      = 1988-020A
CENTER_NAME    = EARTH
REF_FRAME      = TEME
TIME_SYSTEM    = UTC
MEAN_ELEMENT_THEORY = SGP/SGP4

EPOCH          = 2026-01-07T08:12:35.337024
MEAN_MOTION    = 15.17384384
ECCENTRICITY   = .0006177
INCLINATION    = 82.5149
RA_OF_ASC_NODE = 311.5793
ARG_OF_PERICENTER = 63.5858
MEAN_ANOMALY   = 296.6009

EPHEMERIS_TYPE = 0
CLASSIFICATION_TYPE = U
NORAD_CAT_ID   = 18958
ELEMENT_SET_NO = 999
REV_AT_EPOCH   = 4092
BSTAR          = .20607E-3
MEAN_MOTION_DOT = .4147E-4
MEAN_MOTION_DDOT = 0

CCSDS_OMM_VERS = 2.0
CREATION_DATE  = 
ORIGINATOR     = 

OBJECT_NAME    = SL-3 R/B
OBJECT_ID      = 1988-032B
CENTER_NAME    = EARTH
REF_FRAME      = TEME
TIME_SYSTEM    = UTC
MEAN_ELEMENT_THEORY = SGP/SGP4

EPOCH          = 2026-01-07T11:43:49.001376
MEAN_MOTION    = 15.19063351
ECCENTRICITY   = .0028461
INCLINATION    = 97.5112
RA_OF_ASC_NODE = 351.0390
ARG_OF_PERICENTER = 87.5458
MEAN_ANOMALY   = 272.9034

EPHEMERIS_TYPE = 0
CLASSIFICATION_TYPE = U
NORAD_CAT_ID   = 19046
ELEMENT_SET_NO = 999
REV_AT_EPOCH   = 4281
BSTAR          = .2591E-3
MEAN_MOTION_DOT = .5419E-4
MEAN_MOTION_DDOT = 0

CCSDS_OMM_VERS = 2.0
CREATION_DATE  = 
ORIGINATOR     = 

OBJECT_NAME    = SL-16 R/B
OBJECT_ID      = 1988-039B
CENTER_NAME    = EARTH
REF_FRAME      = TEME
TIME_SYSTEM    = UTC
MEAN_ELEMENT_THEORY = SGP/SGP4

EPOCH          = 2026-01-07T11:11:18.229344
MEAN_MOTION    = 14.19603689
ECCENTRICITY   = .001961
INCLINATION    = 71.0134
RA_OF_ASC_NODE = 198.0028
ARG_OF_PERICENTER = 72.1252
MEAN_ANOMALY   = 288.2009

EPHEMERIS_TYPE = 0
CLASSIFICATION_TYPE = U
NORAD_CAT_ID   = 19120
ELEMENT_SET_NO = 999
REV_AT_EPOCH   = 94969
BSTAR          = .48468E-4
MEAN_MOTION_DOT = .55E-6
MEAN_MOTION_DDOT = 0

CCSDS_OMM_VERS = 2.0
CREATION_DATE  = 
ORIGINATOR     = 

OBJECT_NAME    = COSMOS 1953
OBJECT_ID      = 1988-050A
CENTER_NAME    = EARTH
REF_FRAME      = TEME
TIME_SYSTEM    = UTC
MEAN_ELEMENT_THEORY = SGP/SGP4

EPOCH          = 2026-01-06T20:47:26.642976
MEAN_MOTION    = 15.27279129
ECCENTRICITY   = .0011626
INCLINATION    = 82.5067
RA_OF_ASC_NODE = 220.3632
ARG_OF_PERICENTER = 349.1631
MEAN_ANOMALY   = 10.9355

EPHEMERIS_TYPE = 0
CLASSIFICATION_TYPE = U
NORAD_CAT_ID   = 19210
ELEMENT_SET_NO = 999
REV_AT_EPOCH   = 2834
BSTAR          = .25443E-3
MEAN_MOTION_DOT = .6843E-4
MEAN_MOTION_DDOT = 0

CCSDS_OMM_VERS = 2.0
CREATION_DATE  = 
ORIGINATOR     = 

OBJECT_NAME    = SL-8 R/B
OBJECT_ID      = 1988-053B
CENTER_NAME    = EARTH
REF_FRAME      = TEME
TIME_SYSTEM    = UTC
MEAN_ELEMENT_THEORY = SGP/SGP4

EPOCH          = 2026-01-07T08:33:03.818880
MEAN_MOTION    = 14.38877923
ECCENTRICITY   = .0019102
INCLINATION    = 74.0459
RA_OF_ASC_NODE = 225.5083
ARG_OF_PERICENTER = 60.0124
MEAN_ANOMALY   = 112.5924

EPHEMERIS_TYPE = 0
CLASSIFICATION_TYPE = U
NORAD_CAT_ID   = 19257
ELEMENT_SET_NO = 999
REV_AT_EPOCH   = 96777
BSTAR          = .97645E-4
MEAN_MOTION_DOT = .275E-5
MEAN_MOTION_DDOT = 0

CCSDS_OMM_VERS = 2.0
CREATION_DATE  = 
ORIGINATOR     = 

OBJECT_NAME    = COSMOS 1975
OBJECT_ID      = 1988-093A
CENTER_NAME    = EARTH
REF_FRAME      = TEME
TIME_SYSTEM    = UTC
MEAN_ELEMENT_THEORY = SGP/SGP4

EPOCH          = 2026-01-07T11:22:44.711904
MEAN_MOTION    = 15.26909769
ECCENTRICITY   = .0012295
INCLINATION    = 82.5200
RA_OF_ASC_NODE = 179.0579
ARG_OF_PERICENTER = 30.8424
MEAN_ANOMALY   = 329.3535

EPHEMERIS_TYPE = 0
CLASSIFICATION_TYPE = U
NORAD_CAT_ID   = 19573
ELEMENT_SET_NO = 999
REV_AT_EPOCH   = 1006
BSTAR          = .27051E-3
MEAN_MOTION_DOT = .7195E-4
MEAN_MOTION_DDOT = 0

CCSDS_OMM_VERS = 2.0
CREATION_DATE  = 
ORIGINATOR     = 

OBJECT_NAME    = SL-14 R/B
OBJECT_ID      = 1988-093B
CENTER_NAME    = EARTH
REF_FRAME      = TEME
TIME_SYSTEM    = UTC
MEAN_ELEMENT_THEORY = SGP/SGP4

EPOCH          = 2026-01-07T11:53:52.407744
MEAN_MOTION    = 14.85584329
ECCENTRICITY   = .0019454
INCLINATION    = 82.5316
RA_OF_ASC_NODE = 99.4981
ARG_OF_PERICENTER = 238.3981
MEAN_ANOMALY   = 132.4154

EPHEMERIS_TYPE = 0
CLASSIFICATION_TYPE = U
NORAD_CAT_ID   = 19574
ELEMENT_SET_NO = 999
REV_AT_EPOCH   = 99195
BSTAR          = .68881E-4
MEAN_MOTION_DOT = .621E-5
MEAN_MOTION_DDOT = 0

CCSDS_OMM_VERS = 2.0
CREATION_DATE  = 
ORIGINATOR     = 

OBJECT_NAME    = SL-16 R/B
OBJECT_ID      = 1988-102B
CENTER_NAME    = EARTH
REF_FRAME      = TEME
TIME_SYSTEM    = UTC
MEAN_ELEMENT_THEORY = SGP/SGP4

EPOCH          = 2026-01-07T10:51:22.284864
MEAN_MOTION    = 14.16141372
ECCENTRICITY   = .001194
INCLINATION    = 70.9999
RA_OF_ASC_NODE = 280.3428
ARG_OF_PERICENTER = 107.0757
MEAN_ANOMALY   = 253.1675

EPHEMERIS_TYPE = 0
CLASSIFICATION_TYPE = U
NORAD_CAT_ID   = 19650
ELEMENT_SET_NO = 999
REV_AT_EPOCH   = 91822
BSTAR          = -.17072E-4
MEAN_MOTION_DOT = -.82E-6
MEAN_MOTION_DDOT = 0

CCSDS_OMM_VERS = 2.0
CREATION_DATE  = 
ORIGINATOR     = 

OBJECT_NAME    = INTERCOSMOS 24
OBJECT_ID      = 1989-080A
CENTER_NAME    = EARTH
REF_FRAME      = TEME
TIME_SYSTEM    = UTC
MEAN_ELEMENT_THEORY = SGP/SGP4

EPOCH          = 2026-01-07T09:41:31.680096
MEAN_MOTION    = 12.59480555
ECCENTRICITY   = .118896
INCLINATION    = 82.6072
RA_OF_ASC_NODE = 144.2700
ARG_OF_PERICENTER = 75.0129
MEAN_ANOMALY   = 297.9273

EPHEMERIS_TYPE = 0
CLASSIFICATION_TYPE = U
NORAD_CAT_ID   = 20261
ELEMENT_SET_NO = 999
REV_AT_EPOCH   = 65908
BSTAR          = .14827E-3
MEAN_MOTION_DOT = .535E-5
MEAN_MOTION_DDOT = 0

CCSDS_OMM_VERS = 2.0
CREATION_DATE  = 
ORIGINATOR     = 

OBJECT_NAME    = SL-14 R/B
OBJECT_ID      = 1989-080C
CENTER_NAME    = EARTH
REF_FRAME      = TEME
TIME_SYSTEM    = UTC
MEAN_ELEMENT_THEORY = SGP/SGP4

EPOCH          = 2026-01-07T12:08:24.447264
MEAN_MOTION    = 12.50434819
ECCENTRICITY   = .1230022
INCLINATION    = 82.5910
RA_OF_ASC_NODE = 212.4764
ARG_OF_PERICENTER = 324.6999
MEAN_ANOMALY   = 27.8300

EPHEMERIS_TYPE = 0
CLASSIFICATION_TYPE = U
NORAD_CAT_ID   = 20262
ELEMENT_SET_NO = 999
REV_AT_EPOCH   = 65250
BSTAR          = .91169E-4
MEAN_MOTION_DOT = .306E-5
MEAN_MOTION_DDOT = 0

CCSDS_OMM_VERS = 2.0
CREATION_DATE  = 
ORIGINATOR     = 

OBJECT_NAME    = DELTA 1 R/B
OBJECT_ID      = 1989-089B
CENTER_NAME    = EARTH
REF_FRAME      = TEME
TIME_SYSTEM    = UTC
MEAN_ELEMENT_THEORY = SGP/SGP4

EPOCH          = 2026-01-07T12:09:52.677216
MEAN_MOTION    = 14.50599456
ECCENTRICITY   = .0068106
INCLINATION    = 97.0737
RA_OF_ASC_NODE = 224.6594
ARG_OF_PERICENTER = 317.0002
MEAN_ANOMALY   = 42.5884

EPHEMERIS_TYPE = 0
CLASSIFICATION_TYPE = U
NORAD_CAT_ID   = 20323
ELEMENT_SET_NO = 999
REV_AT_EPOCH   = 88686
BSTAR          = .12922E-3
MEAN_MOTION_DOT = .486E-5
MEAN_MOTION_DDOT = 0

CCSDS_OMM_VERS = 2.0
CREATION_DATE  = 
ORIGINATOR     = 

OBJECT_NAME    = ARIANE 40 R/B
OBJECT_ID      = 1990-005H
CENTER_NAME    = EARTH
REF_FRAME      = TEME
TIME_SYSTEM    = UTC
MEAN_ELEMENT_THEORY = SGP/SGP4

EPOCH          = 2026-01-07T10:50:51.783936
MEAN_MOTION    = 14.39821415
ECCENTRICITY   = .0010607
INCLINATION    = 98.3203
RA_OF_ASC_NODE = 69.8989
ARG_OF_PERICENTER = 35.0388
MEAN_ANOMALY   = 325.1496

EPHEMERIS_TYPE = 0
CLASSIFICATION_TYPE = U
NORAD_CAT_ID   = 20443
ELEMENT_SET_NO = 999
REV_AT_EPOCH   = 88399
BSTAR          = .12246E-3
MEAN_MOTION_DOT = .342E-5
MEAN_MOTION_DDOT = 0

