COSMOS 1933             
1 18958U 88020A   26007.34207566  .00004147  00000+0  20607-3 0  9990
2 18958  82.5149 311.5793 0006177  63.5858 296.6009 15.17384384 40928
SL-3 R/B                
1 19046U 88032B   26007.48876159  .00005419  00000+0  25910-3 0  9992
2 19046  97.5112 351.0390 0028461  87.5458 272.9034 15.19063351 42812
SL-16 R/B               
1 19120U 88039B   26007.46618321  .00000055  00000+0  48468-4 0  9990
2 19120  71.0134 198.0028 0019610  72.1252 288.2009 14.19603689949698
COSMOS 1953             
1 19210U 88050A   26006.86628059  .00006843  00000+0  25443-3 0  9993
2 19210  82.5067 220.3632 0011626 349.1631  10.9355 15.27279129 28349
SL-8 R/B                
1 19257U 88053B   26007.35629420  .00000275  00000+0  97645-4 0  9992
2 19257  74.0459 225.5083 0019102  60.0124 112.5924 14.38877923967778
COSMOS 1975             
1 19573U 88093A   26007.47412861  .00007195  00000+0  27051-3 0  9990
2 19573  82.5200 179.0579 0012295  30.8424 329.3535 15.26909769 10063
SL-14 R/B               
1 19574U 88093B   26007.49574546  .00000621  00000+0  68881-4 0  9996
2 19574  82.5316  99.4981 0019454 238.3981 132.4154 14.85584329991952
SL-16 R/B               
1 19650U 88102B   26007.45234126 -.00000082  00000+0 -17072-4 0  9994
2 19650  70.9999 280.3428 0011940 107.0757 253.1675 14.16141372918226
INTERCOSMOS 24          
1 20261U 89080A   26007.40383889  .00000535  00000+0  14827-3 0  9991
2 20261  82.6072 144.2700 1188960  75.0129 297.9273 12.59480555659084
SL-14 R/B               
1 20262U 89080C   26007.50583851  .00000306  00000+0  91169-4 0  9995
2 20262  82.5910 212.4764 1230022 324.6999  27.8300 12.50434819652502
DELTA 1 R/B             
1 20323U 89089B   26007.50685969  .00000486  00000+0  12922-3 0  9993
2 20323  97.0737 224.6594 0068106 317.0002  42.5884 14.50599456886866
ARIANE 40 R/B           
1 20443U 90005H   26007.45198824  .00000342  00000+0  12246-3 0  9999
2 20443  98.3203  69.8989 0010607  35.0388 325.1496 14.39821415883995
